STARLINK-2543           
1 48278U 21036C   26068.28605592  .00013779  00000+0  47597-3 0  9991
2 48278  53.1607  26.2778 0001404 110.4197 249.6954 15.30234914269050
COSMOS 2588             
1 64095U 25109A   26068.81179522  .00009169  00000+0  32611-3 0  9998
2 64095  72.9704  73.5401 0005019 308.6780  51.3966 15.29122656 44425
