[{"OBJECT_NAME":"STARLINK-2543","OBJECT_ID":"2021-036C","EPOCH":"2026-03-09T06:51:55.231488","MEAN_MOTION":15.30234914,"ECCENTRICITY":0.00014043,"INCLINATION":53.1607,"RA_OF_ASC_NODE":26.2778,"ARG_OF_PERICENTER":110.4197,"MEAN_ANOMALY":249.6954,"EPHEMERIS_TYPE":0,"CLASSIFICATION_TYPE":"U","NORAD_CAT_ID":48278,"ELEMENT_SET_NO":999,"REV_AT_EPOCH":26905,"BSTAR":0.00047597044,"MEAN_MOTION_DOT":0.00013779,"MEAN_MOTION_DDOT":0},{"OBJECT_NAME":"COSMOS 2588","OBJECT_ID":"2025-109A","EPOCH":"2026-03-09T19:28:59.107008","MEAN_MOTION":15.29122656,"ECCENTRICITY":0.0005019,"INCLINATION":72.9704,"RA_OF_ASC_NODE":73.5401,"ARG_OF_PERICENTER":308.678,"MEAN_ANOMALY":51.3966,"EPHEMERIS_TYPE":0,"CLASSIFICATION_TYPE":"U","NORAD_CAT_ID":64095,"ELEMENT_SET_NO":999,"REV_AT_EPOCH":4442,"BSTAR":0.00032611,"MEAN_MOTION_DOT":9.169e-5,"MEAN_MOTION_DDOT":0}]
